COSMOS 2361 [-]         
1 25590U 98076A   19068.42739122  .00000028  00000-0  14813-4 0  9996
2 25590  82.9378  10.1742 0030355 294.2277 205.3848 13.72960797 12413
COSMOS 2378 [-]         
1 26818U 01023A   19067.90229112  .00000039  00000-0  25624-4 0  9995
2 26818  82.9289  30.7875 0031659 245.1402 114.6454 13.73931570890008
COSMOS 2389 [-]         
1 27436U 02026A   19068.31343699  .00000051  00000-0  36972-4 0  9991
2 27436  82.9539 334.9939 0047588 112.2120  25.5243 13.74933448842057
COSMOS 2398 [-]         
1 27818U 03023A   19067.91199830  .00000059  00000-0  47518-4 0  9990
2 27818  82.9470 293.0202 0032304 132.2387 228.1499 13.72165200789291
COSMOS 2407 [+]         
1 28380U 04028A   19067.90244687  .00000034  00000-0  18668-4 0  9998
2 28380  82.9571 242.1778 0040331 121.4334 239.0774 13.76062353734603
COSMOS 2414 [+]         
1 28521U 05002A   19068.79437609  .00000045  00000-0  24718-4 0  9999
2 28521  82.9462 252.1053 0040310 344.0916  15.8980 13.87608342715730
COSMOS 2429 [-]         
1 32052U 07038A   19068.36802648  .00000039  00000-0  24591-4 0  9998
2 32052  82.9845   3.5067 0039846  93.1496 267.4220 13.74912002576643
COSMOS 2454 [-]         
1 35635U 09039A   19068.78732348  .00000048  00000-0  26477-4 0  9991
2 35635  82.9524 240.6852 0018215 301.7915  58.1477 13.89637050488637
COSMOS 2463 [+]         
1 36519U 10017A   19068.88369474  .00000008  00000-0 -75015-5 0  9998
2 36519  82.9601  40.9231 0035021 300.7895  58.9826 13.71433601443912
